
CAS-2T & KS-1Q
1 41847U 16066G   26170.11066240  .00001331  00000+0  19362-3 0  9990
2 41847  98.3821 245.8251 0342842 123.6625 239.7766 14.44699826505072

CUBEBUG-2 (LO-74)
1 39440U 13066AA  26170.27371325  .00004250  00000+0  39344-3 0  9998
2 39440  97.8910 119.2605 0058255  22.3553 338.0186 14.93777947677305

CUBESX-HSE 3 (RS42S)
1 57178U 23091N   26170.19965587  .00011440  00000+0  38057-3 0  9994
2 57178  97.5087 235.8124 0011987  88.6512 271.6102 15.31257745164737

DIWATA-2B
1 43678U 18084H   26170.30387986  .00001646  00000+0  13580-3 0  9995
2 43678  98.1183   6.6032 0012715 163.3714 196.7928 15.00459215416531

DUCHIFAT-1
1 40021U 14033M   26169.68438844  .00088318  00000+0  89916-3 0  9990
2 40021  98.0447 229.0553 0002814 113.8680 246.2872 15.64848252655988

ES'HAIL 2
1 43700U 18090A   26170.25648108  .00000138  00000+0  00000+0 0  9992
2 43700   0.0116  48.4976 0001741  75.7738 261.3229  1.00271825 27697

FOX-1A (AO-85)
1 40967U 15058D   26170.29771999  .00001785  00000+0  16856-3 0  9993
2 40967  64.7756 272.4251 0130567  55.7770 305.5632 14.90977573113886

FOX-1CLIFF (AO-95)
1 43770U 18099N   26170.10947646  .00009076  00000+0  34759-3 0  9993
2 43770  97.4376 230.3486 0007763 350.5763   9.5328 15.26744431413515

FUNCUBE-1 (AO-73)
1 39444U 13066AE  26170.17779278  .00004907  00000+0  30582-3 0  9994
2 39444  97.8280 141.6651 0035813 193.8693 166.1555 15.09509465679963

GREENCUBE (IO-117)
1 53109U 22080E   26169.42938941 -.00000003  00000+0  00000+0 0  9996
2 53109  70.1442 297.8130 0008904 289.4279  70.5418  6.42583246 92141

ITASAT
1 43786U 18099AE  26170.12957279  .00004944  00000+0  23858-3 0  9992
2 43786  97.4024 221.6025 0011894 353.4838   6.6240 15.19077032413204

JY1SAT (JO-97)
1 43803U 18099AX  26170.11834528  .00014216  00000+0  43822-3 0  9998
2 43803  97.4126 232.9593 0004468 253.2846 106.7906 15.33703718413920

LILACSAT-2
1 40908U 15049K   26170.33616911  .00014738  00000+0  25077-3 0  9992
2 40908  97.4640 207.2597 0005634 234.8814 125.1911 15.51503390596083

MONITOR-2 (RS39S)
1 57184U 23091U   26170.28903950  .00004041  00000+0  19647-3 0  9990
2 57184  97.5068 228.5585 0012768 104.7551 255.5099 15.18927327164274

MONITOR-3 (RS58S)
1 57180U 23091Q   26170.29408169  .00008806  00000+0  32552-3 0  9992
2 57180  97.5078 233.7557 0013074  94.3260 265.9474 15.27877646164618

MONITOR-4 (RS57S)
1 57182U 23091S   26170.27302142  .00009087  00000+0  33495-3 0  9995
2 57182  97.5072 233.7058 0013059  94.7526 265.5205 15.27962944164616

POLYTECH-UNIVERSE 3 (R*)
1 57191U 23091AB  26170.25009366  .00004337  00000+0  20904-3 0  9999
2 57191  97.5043 228.0243 0016961 120.2228 240.0688 15.19129456164264

QB50P1
1 40025U 14033R   26170.25905701  .00006785  00000+0  33444-3 0  9993
2 40025  98.0964 181.5504 0008005 207.6997 152.3810 15.18285787653349

RADFXSAT (FOX-1B)
1 43017U 17073E   26168.60486874  .00005679  00000+0  24962-3 0  9991
2 43017  97.4696  35.8108 0149538 327.7970  31.4193 15.12722439465459

RS-44 & BREEZE-KM R/B
1 44909U 19096E   26170.19427269  .00000010  00000+0 -99590-5 0  9995
2 44909  82.5220 338.3709 0218247 139.4899 222.2680 12.79748867302609

SALSAT
1 46495U 20068K   26169.97697596  .00005999  00000+0  21050-3 0  9998
2 46495  97.8853 173.1506 0007950 300.6759  59.3696 15.29820569315637

SVYATOBOR 1 (RS60S)
1 57187U 23091X   26170.28790727  .00007325  00000+0  28178-3 0  9996
2 57187  97.5085 234.1166 0010838  88.2379 272.0101 15.26645457164632

TIANYAN 01
1 44881U 19093C   26170.33337968  .00000102  00000+0  17544-4 0  9992
2 44881  97.7530 242.5134 0015038  80.5295 279.7620 14.86519950351735

UMKA 1 (RS40S)
1 57172U 23091G   26170.19938151  .00005056  00000+0  23170-3 0  9991
2 57172  97.5046 228.8890 0014292 111.3855 248.8906 15.20837952164318

UNISAT-6
1 40012U 14033C   26170.15032070  .00002076  00000+0  22642-3 0  9995
2 40012  97.7885 322.8273 0046165  63.0276 297.5644 14.88253836646456

UTMN 2 (RS27S)
1 57203U 23091AP  26170.28145584  .00010926  00000+0  35461-3 0  9994
2 57203  97.5083 237.5318 0009161  77.4838 282.7427 15.32095257164860

UWE-3
1 39446U 13066AG  26170.15401208  .00003664  00000+0  31638-3 0  9991
2 39446  97.8700 126.2408 0047320 314.5576  45.1785 14.97037831677877

UWE-4
1 43880U 18111E   26169.76835927  .00027476  00000+0  55973-3 0  9993
2 43880  97.5851  98.2321 0005260 335.4333  24.6665 15.46206755411020

VIZARD-METEO (RS38S)
1 57189U 23091Z   26170.23222626  .00014009  00000+0  40032-3 0  9991
2 57189  97.5087 239.7584 0008139  71.6417 288.5711 15.36081107165009

XW-3 (CAS-9)
1 50466U 21131B   26170.27602433  .00000288  00000+0  10252-3 0  9992
2 50466  98.4985 262.6544 0005398  92.3254 267.8553 14.41358755235419
